{
    "links": {
        "self": "http://www.neowsapp.com/rest/v1/neo/3291167?api_key=iIulBulltgU6a56xZRHN4H3l9WmuAYTsLGpBGhQ2"
    },
    "id": "3291167",
    "neo_reference_id": "3291167",
    "name": "(2005 ST4)",
    "designation": "2005 ST4",
    "nasa_jpl_url": "http://ssd.jpl.nasa.gov/sbdb.cgi?sstr=3291167",
    "absolute_magnitude_h": 22.4,
    "estimated_diameter": {
        "kilometers": {
            "estimated_diameter_min": 0.0880146521,
            "estimated_diameter_max": 0.1968067451
        },
        "meters": {
            "estimated_diameter_min": 88.0146520901,
            "estimated_diameter_max": 196.8067450894
        },
        "miles": {
            "estimated_diameter_min": 0.0546897524,
            "estimated_diameter_max": 0.122290004
        },
        "feet": {
            "estimated_diameter_min": 288.7619911632,
            "estimated_diameter_max": 645.6914415591
        }
    },
    "is_potentially_hazardous_asteroid": false,
    "close_approach_data": [
        {
            "close_approach_date": "2005-10-19",
            "close_approach_date_full": "2005-Oct-19 19:27",
            "epoch_date_close_approach": 1129750020000,
            "relative_velocity": {
                "kilometers_per_second": "7.1375554939",
                "kilometers_per_hour": "25695.1997779015",
                "miles_per_hour": "15965.9978842189"
            },
            "miss_distance": {
                "astronomical": "0.0755399571",
                "lunar": "29.3850433119",
                "kilometers": "11300616.682051377",
                "miles": "7021877.5974359226"
            },
            "orbiting_body": "Earth"
        },
        {
            "close_approach_date": "2149-01-28",
            "close_approach_date_full": "2149-Jan-28 01:59",
            "epoch_date_close_approach": 5651085540000,
            "relative_velocity": {
                "kilometers_per_second": "2.2995724801",
                "kilometers_per_hour": "8278.4609281938",
                "miles_per_hour": "5143.9136806324"
            },
            "miss_distance": {
                "astronomical": "1.8574118349",
                "lunar": "722.5332037761",
                "kilometers": "277864854.213831663",
                "miles": "172657214.1870684294"
            },
            "orbiting_body": "Juptr"
        }
    ],
    "orbital_data": {
        "orbit_id": "14",
        "orbit_determination_date": "2017-04-06 09:10:27",
        "first_observation_date": "2005-09-25",
        "last_observation_date": "2005-12-23",
        "data_arc_in_days": 89,
        "observations_used": 48,
        "orbit_uncertainty": "5",
        "minimum_orbit_intersection": ".0873671",
        "jupiter_tisserand_invariant": "3.321",
        "epoch_osculation": "2459000.5",
        "eccentricity": ".5541041508234705",
        "semi_major_axis": "2.361595829456095",
        "inclination": "4.993014130655236",
        "ascending_node_longitude": "168.8978240039844",
        "orbital_period": "1325.582575219763",
        "perihelion_distance": "1.053025777787076",
        "perihelion_argument": "231.3338897822832",
        "aphelion_distance": "3.670165881125114",
        "perihelion_time": "2458969.859560944085",
        "mean_anomaly": "8.321290779113223",
        "mean_motion": ".2715787056421718",
        "equinox": "J2000",
        "orbit_class": {
            "orbit_class_type": "AMO",
            "orbit_class_description": "Near-Earth asteroid orbits similar to that of 1221 Amor",
            "orbit_class_range": "1.017 AU < q (perihelion) < 1.3 AU"
        }
    },
    "is_sentry_object": false
}